NORAD_CAT_ID,OBJECT_NAME,OBJECT_TYPE,EPOCH,MEAN_MOTION,ECCENTRICITY,INCLINATION,RA_OF_ASC_NODE,ARG_OF_PERICENTER,MEAN_ANOMALY,BSTAR,MEAN_MOTION_DOT,MEAN_MOTION_DDOT,TLE_LINE0,TLE_LINE1,TLE_LINE2,SEMIMAJOR_AXIS,PERIOD,APOGEE,PERIGEE,DECAYED
55418.0,STARLINK-5030,PAYLOAD,2024-06-15 14:49:28,14.98337694,0.0003203,69.9996,238.1437,268.258,91.8213,4.3193e-05,4.22e-06,0.0,0 STARLINK-5030,1 55418U 23014AD  24167.61769292  .00000422  00000-0  43193-4 0  9997,2 55418  69.9996 238.1437 0003203 268.2580  91.8213 14.98337694 76887,6950.169,96.107,574.26,569.808,0.0
55418.0,STARLINK-5030,PAYLOAD,2024-06-16 13:15:21,14.9833289,0.0003156,69.9997,235.7882,271.4034,88.6763,3.0675e-05,2.73e-06,0.0,0 STARLINK-5030,1 55418U 23014AD  24168.55233424  .00000273  00000-0  30675-4 0  9999,2 55418  69.9997 235.7882 0003156 271.4034  88.6763 14.98332890 77026,6950.184,96.107,574.242,569.855,0.0
55418.0,STARLINK-5030,PAYLOAD,2024-06-16 21:16:02,14.9832855,0.0003108,69.9999,234.9465,271.9397,88.1407,-1.0836e-05,-2.22e-06,0.0,0 STARLINK-5030,1 55418U 23014AD  24168.88613782 -.00000222  00000-0 -10836-4 0  9997,2 55418  69.9999 234.9465 0003108 271.9397  88.1407 14.98328550 77073,6950.197,96.107,574.222,569.902,0.0
55418.0,STARLINK-5030,PAYLOAD,2024-06-17 21:18:03,14.9832786,0.0003077,69.9998,232.4225,267.7568,92.3239,-2.7444e-05,-4.2e-06,0.0,0 STARLINK-5030,1 55418U 23014AD  24169.88754003 -.00000420  00000-0 -27444-4 0  9993,2 55418  69.9998 232.4225 0003077 267.7568  92.3239 14.98327860 77227,6950.2,96.107,574.203,569.926,0.0
55418.0,STARLINK-5030,PAYLOAD,2024-06-18 11:43:15,14.98334351,0.0003208,69.9993,230.9069,269.8761,90.203,6.5347e-05,6.87e-06,0.0,0 STARLINK-5030,1 55418U 23014AD  24170.48837264  .00000687  00000-0  65347-4 0  9999,2 55418  69.9993 230.9069 0003208 269.8761  90.2030 14.98334351 76379,6950.179,96.107,574.274,569.815,0.0
55418.0,STARLINK-5030,PAYLOAD,2024-06-18 13:19:23,14.98334959,0.0003203,69.9993,230.7386,270.0641,90.0151,7.161e-05,7.62e-06,0.0,0 STARLINK-5030,1 55418U 23014AD  24170.55513196  .00000762  00000-0  71610-4 0  9996,2 55418  69.9993 230.7386 0003203 270.0641  90.0151 14.98334959 77327,6950.178,96.107,574.269,569.816,0.0
55418.0,STARLINK-5030,PAYLOAD,2024-06-18 21:20:03,14.98331633,0.0003171,69.9994,229.897,269.8267,90.2529,6.5183e-05,6.85e-06,0.0,0 STARLINK-5030,1 55418U 23014AD  24170.88893377  .00000685  00000-0  65183-4 0  9996,2 55418  69.9994 229.8970 0003171 269.8267  90.2529 14.98331633 77372,6950.188,96.107,574.257,569.849,0.0
55418.0,STARLINK-5030,PAYLOAD,2024-06-19 05:20:44,14.9832546,0.0003209,69.9991,229.0549,269.3615,90.7177,8.8355e-05,9.61e-06,0.0,0 STARLINK-5030,1 55418U 23014AD  24171.22273705  .00000961  00000-0  88355-4 0  9995,2 55418  69.9991 229.0549 0003209 269.3615  90.7177 14.98325460 76483,6950.207,96.107,574.302,569.842,0.0
55418.0,STARLINK-5030,PAYLOAD,2024-06-19 13:21:24,14.98325955,0.0003268,69.999,228.2132,268.5161,91.5624,5.8592e-05,6.06e-06,0.0,0 STARLINK-5030,1 55418U 23014AD  24171.55653806  .00000606  00000-0  58592-4 0  9991,2 55418  69.9990 228.2132 0003268 268.5161  91.5624 14.98325955 77478,6950.205,96.107,574.342,569.799,0.0
55418.0,STARLINK-5030,PAYLOAD,2024-06-20 05:22:45,14.98333471,0.0003247,69.9991,226.5302,268.3982,91.6806,2.0301e-05,1.49e-06,0.0,0 STARLINK-5030,1 55418U 23014AD  24172.22413415  .00000149  00000-0  20301-4 0  9995,2 55418  69.9991 226.5302 0003247 268.3982  91.6806 14.98333471 76637,6950.182,96.107,574.304,569.79,0.0
55418.0,STARLINK-5030,PAYLOAD,2024-06-20 13:23:25,14.98334314,0.0003266,69.9991,225.6884,268.2884,91.7901,1.1039e-05,3.9e-07,0.0,0 STARLINK-5030,1 55418U 23014AD  24172.55793309  .00000039  00000-0  11039-4 0  9990,2 55418  69.9991 225.6884 0003266 268.2884  91.7901 14.98334314 77627,6950.18,96.107,574.314,569.775,0.0
55418.0,STARLINK-5030,PAYLOAD,2024-06-21 05:24:46,14.98328447,0.0003361,69.9987,224.0043,267.5153,92.5621,4.3246e-05,4.23e-06,0.0,0 STARLINK-5030,1 55418U 23014AD  24173.22553456  .00000423  00000-0  43246-4 0  9994,2 55418  69.9987 224.0043 0003361 267.5153  92.5621 14.98328447 76783,6950.198,96.107,574.399,569.727,0.0
55418.0,STARLINK-5030,PAYLOAD,2024-06-21 13:25:26,14.98330881,0.0003372,69.9988,223.1627,267.3505,92.7268,2.956e-05,2.6e-06,0.0,0 STARLINK-5030,1 55418U 23014AD  24173.55933366  .00000260  00000-0  29560-4 0  9994,2 55418  69.9988 223.1627 0003372 267.3505  92.7268 14.98330881 77777,6950.19,96.107,574.399,569.712,0.0
55418.0,STARLINK-5030,PAYLOAD,2024-06-22 11:51:19,14.98328888,0.0003327,69.999,220.8066,269.4705,90.6073,-1.0595e-05,-2.19e-06,0.0,0 STARLINK-5030,1 55418U 23014AD  24174.49397636 -.00000219  00000-0 -10595-4 0  9996,2 55418  69.9990 220.8066 0003327 269.4705  90.6073 14.98328888 76972,6950.196,96.107,574.374,569.749,0.0
55418.0,STARLINK-5030,PAYLOAD,2024-06-22 13:27:27,14.98329258,0.0003328,69.9991,220.6383,269.6368,90.4409,-6.7078e-06,-1.73e-06,0.0,0 STARLINK-5030,1 55418U 23014AD  24174.56073606 -.00000173  00000-0 -67078-5 0  9990,2 55418  69.9991 220.6383 0003328 269.6368  90.4409 14.98329258 77920,6950.195,96.107,574.373,569.747,0.0
55418.0,STARLINK-5030,PAYLOAD,2024-06-23 11:53:20,14.98331096,0.0003377,69.9989,218.282,269.19,90.8872,5.375e-05,5.48e-06,0.0,0 STARLINK-5030,1 55418U 23014AD  24175.49537278  .00000548  00000-0  53750-4 0  9998,2 55418  69.9989 218.2820 0003377 269.1900  90.8872 14.98331096 77120,6950.19,96.107,574.402,569.707,0.0
55418.0,STARLINK-5030,PAYLOAD,2024-06-24 11:55:20,14.98333471,0.0003409,69.9988,215.7573,267.7887,92.2882,7.9764e-05,8.59e-06,0.0,0 STARLINK-5030,1 55418U 23014AD  24176.49676875  .00000859  00000-0  79764-4 0  9994,2 55418  69.9988 215.7573 0003409 267.7887  92.2882 14.98333471 77272,6950.182,96.107,574.416,569.678,0.0
55418.0,STARLINK-5030,PAYLOAD,2024-06-25 11:57:22,14.98327333,0.0003312,69.9991,213.2334,265.2016,94.8765,-3.3687e-05,-4.95e-06,0.0,0 STARLINK-5030,1 55418U 23014AD  24177.49817509 -.00000495  00000-0 -33687-4 0  9998,2 55418  69.9991 213.2334 0003312 265.2016  94.8765 14.98327333 77429,6950.201,96.107,574.368,569.764,0.0
55418.0,STARLINK-5030,PAYLOAD,2024-06-26 11:59:22,14.98332148,0.0003385,69.9988,210.7079,266.5208,93.5564,-1.7586e-06,-1.14e-06,0.0,0 STARLINK-5030,1 55418U 23014AD  24178.49957059 -.00000114  00000-0 -17586-5 0  9993,2 55418  69.9988 210.7079 0003385 266.5208  93.5564 14.98332148 77579,6950.186,96.107,574.404,569.699,0.0
55418.0,STARLINK-5030,PAYLOAD,2024-06-27 12:01:23,14.98331232,0.0003538,69.9983,208.1821,270.2078,89.8675,7.7916e-05,8.37e-06,0.0,0 STARLINK-5030,1 55418U 23014AD  24179.50096921  .00000837  00000-0  77916-4 0  9990,2 55418  69.9983 208.1821 0003538 270.2078  89.8675 14.98331232 77728,6950.189,96.107,574.513,569.595,0.0
55418.0,STARLINK-5030,PAYLOAD,2024-06-28 10:27:16,14.98332247,0.0003512,69.9983,205.8263,268.0667,92.0089,3.0894e-05,2.76e-06,0.0,0 STARLINK-5030,1 55418U 23014AD  24180.43560933  .00000276  00000-0  30894-4 0  9994,2 55418  69.9983 205.8263 0003512 268.0667  92.0089 14.98332247 78805,6950.186,96.107,574.492,569.61,0.0
55418.0,STARLINK-5030,PAYLOAD,2024-06-29 04:04:45,14.98330774,0.0003509,69.9982,203.9747,268.0297,92.046,1.0448e-05,3.2e-07,0.0,0 STARLINK-5030,1 55418U 23014AD  24181.16997074  .00000032  00000-0  10448-4 0  9998,2 55418  69.9982 203.9747 0003509 268.0297  92.0460 14.98330774 77978,6950.19,96.107,574.494,569.617,0.0
55418.0,STARLINK-5030,PAYLOAD,2024-06-29 12:05:25,14.98332044,0.00035,69.9982,203.133,268.1799,91.8959,2.4043e-05,1.94e-06,0.0,0 STARLINK-5030,1 55418U 23014AD  24181.50376941  .00000194  00000-0  24043-4 0  9995,2 55418  69.9982 203.1330 0003500 268.1799  91.8959 14.98332044 78969,6950.187,96.107,574.484,569.619,0.0
55418.0,STARLINK-5030,PAYLOAD,2024-06-29 18:29:58,14.98330323,0.0003495,69.9982,202.4594,269.1943,90.8816,9.8821e-06,2.5e-07,0.0,0 STARLINK-5030,1 55418U 23014AD  24181.77081082  .00000025  00000-0  98821-5 0  9992,2 55418  69.9982 202.4594 0003495 269.1943  90.8816 14.98330323 79003,6950.192,96.107,574.486,569.628,0.0
55418.0,STARLINK-5030,PAYLOAD,2024-06-30 04:06:46,14.98329206,0.0003505,69.998,201.4494,268.4844,91.5914,1.3351e-05,6.6e-07,0.0,0 STARLINK-5030,1 55418U 23014AD  24182.17137127  .00000066  00000-0  13351-4 0  9998,2 55418  69.9980 201.4494 0003505 268.4844  91.5914 14.98329206 78120,6950.195,96.107,574.496,569.624,0.0
55418.0,STARLINK-5030,PAYLOAD,2024-06-30 12:07:26,14.98330165,0.0003488,69.9981,200.6077,268.378,91.698,2.3705e-05,1.9e-06,0.0,0 STARLINK-5030,1 55418U 23014AD  24182.50517042  .00000190  00000-0  23705-4 0  9995,2 55418  69.9981 200.6077 0003488 268.3780  91.6980 14.98330165 79117,6950.192,96.107,574.482,569.633,0.0
55418.0,STARLINK-5030,PAYLOAD,2024-06-30 18:31:58,14.98329677,0.0003523,69.998,199.9344,269.0455,91.0301,3.619e-05,3.39e-06,0.0,0 STARLINK-5030,1 55418U 23014AD  24182.77221037  .00000339  00000-0  36190-4 0  9997,2 55418  69.9980 199.9344 0003523 269.0455  91.0301 14.98329677 79151,6950.194,96.107,574.507,569.61,0.0
55418.0,STARLINK-5030,PAYLOAD,2024-07-01 04:08:47,14.98330021,0.0003543,69.9979,198.9244,268.7834,91.2919,3.2885e-05,2.99e-06,0.0,0 STARLINK-5030,1 55418U 23014AD  24183.17277034  .00000299  00000-0  32885-4 0  9992,2 55418  69.9979 198.9244 0003543 268.7834  91.2919 14.98330021 78270,6950.193,96.107,574.52,569.595,0.0
55418.0,STARLINK-5030,PAYLOAD,2024-07-01 10:33:19,14.98331263,0.0003537,69.9979,198.2511,268.7509,91.3245,4.5096e-05,4.45e-06,0.0,0 STARLINK-5030,1 55418U 23014AD  24183.43980919  .00000445  00000-0  45096-4 0  9995,2 55418  69.9979 198.2511 0003537 268.7509  91.3245 14.98331263 79253,6950.189,96.107,574.512,569.596,0.0
55418.0,STARLINK-5030,PAYLOAD,2024-07-01 18:33:57,14.98350883,0.0003882,69.998,197.4094,266.3134,93.7582,0.00024981,2.891e-05,0.0,0 STARLINK-5030,1 55418U 23014AD  24183.77358752  .00002891  00000-0  24981-3 0  9992,2 55418  69.9980 197.4094 0003882 266.3134  93.7582 14.98350883 78363,6950.128,96.106,574.691,569.295,0.0
